$$SOE
2460721.500000000, A.D. 2025-Feb-15 00:00:00.0000, -4.832013085564615E+08, -4.236271483843654E+07, -7.396669120656019E+07,
2460728.500000000, A.D. 2025-Feb-22 00:00:00.0000, -4.825562234106956E+08, -5.180590635067060E+07, -7.411701794796617E+07,
2460735.500000000, A.D. 2025-Mar-01 00:00:00.0000, -4.817131667917813E+08, -6.122789951823112E+07, -7.423693772094542E+07,
2460742.500000000, A.D. 2025-Mar-08 00:00:00.0000, -4.806728131084811E+08, -7.062487105636409E+07, -7.432645270680478E+07,
2460749.500000000, A.D. 2025-Mar-15 00:00:00.0000, -4.794358913861709E+08, -7.999301567331913E+07, -7.438557399662644E+07,
2460756.500000000, A.D. 2025-Mar-22 00:00:00.0000, -4.780031870398396E+08, -8.932854576807500E+07, -7.441432128280266E+07,
2460763.500000000, A.D. 2025-Mar-29 00:00:00.0000, -4.763755423126661E+08, -9.862769337621060E+07, -7.441272286474557E+07,
2460770.500000000, A.D. 2025-Apr-05 00:00:00.0000, -4.745538550527765E+08, -1.078867112254053E+08, -7.438081574151671E+07,
2460777.500000000, A.D. 2025-Apr-12 00:00:00.0000, -4.725390777507602E+08, -1.171018727979779E+08, -7.431864560542829E+07,
2460784.500000000, A.D. 2025-Apr-19 00:00:00.0000, -4.703322170233555E+08, -1.262694722848223E+08, -7.422626679145524E+07,
2460791.500000000, A.D. 2025-Apr-26 00:00:00.0000, -4.679343332719414E+08, -1.353858246367603E+08, -7.410374222469206E+07,
2460798.500000000, A.D. 2025-May-03 00:00:00.0000, -4.653465404034534E+08, -1.444472656961803E+08, -7.395114337565510E+07,
2460805.500000000, A.D. 2025-May-10 00:00:00.0000, -4.625700055864406E+08, -1.534501524014271E+08, -7.376855022613169E+07,
2460812.500000000, A.D. 2025-May-17 00:00:00.0000, -4.596059490063455E+08, -1.623908631055505E+08, -7.355605125278829E+07,
2460819.500000000, A.D. 2025-May-24 00:00:00.0000, -4.564556434463050E+08, -1.712657980642296E+08, -7.331374344912702E+07,
2460826.500000000, A.D. 2025-May-31 00:00:00.0000, -4.531204132753232E+08, -1.800713797822302E+08, -7.304173239863417E+07,
2460833.500000000, A.D. 2025-Jun-07 00:00:00.0000, -4.496016332437775E+08, -1.888040520140488E+08, -7.274013226362562E+07,
2460840.500000000, A.D. 2025-Jun-14 00:00:00.0000, -4.459007294495519E+08, -1.974602780866094E+08, -7.240906552716449E+07,
2460847.500000000, A.D. 2025-Jun-21 00:00:00.0000, -4.420191812577499E+08, -2.060365418170646E+08, -7.204866286710486E+07,
2460854.500000000, A.D. 2025-Jun-28 00:00:00.0000, -4.379585210461926E+08, -2.145293492620502E+08, -7.165906330507389E+07,
2460861.500000000, A.D. 2025-Jul-05 00:00:00.0000, -4.337203332926196E+08, -2.229352291420995E+08, -7.124041431464778E+07,
2460868.500000000, A.D. 2025-Jul-12 00:00:00.0000, -4.293062541929160E+08, -2.312507327472250E+08, -7.079287184480101E+07,
2460875.500000000, A.D. 2025-Jul-19 00:00:00.0000, -4.247179716196116E+08, -2.394724339002057E+08, -7.031660032282510E+07,
2460882.500000000, A.D. 2025-Jul-26 00:00:00.0000, -4.199572252102731E+08, -2.475969290357256E+08, -6.981177266061214E+07,
2460889.500000000, A.D. 2025-Aug-02 00:00:00.0000, -4.150258065201883E+08, -2.556208373749372E+08, -6.927857026849154E+07,
2460896.500000000, A.D. 2025-Aug-09 00:00:00.0000, -4.099255592155214E+08, -2.635408012110043E+08, -6.871718307977903E+07,
2460903.500000000, A.D. 2025-Aug-16 00:00:00.0000, -4.046583792293958E+08, -2.713534863696946E+08, -6.812780959798896E+07,
2460910.500000000, A.D. 2025-Aug-23 00:00:00.0000, -3.992262145876018E+08, -2.790555828293915E+08, -6.751065699187842E+07,
2460917.500000000, A.D. 2025-Aug-30 00:00:00.0000, -3.936310645741887E+08, -2.866438047872804E+08, -6.686594120976077E+07,
2460924.500000000, A.D. 2025-Sep-06 00:00:00.0000, -3.878749796538709E+08, -2.941148891721768E+08, -6.619388690079924E+07,
2460931.500000000, A.D. 2025-Sep-13 00:00:00.0000, -3.819600638206660E+08, -3.014655950881894E+08, -6.549472719261026E+07,
2460938.500000000, A.D. 2025-Sep-20 00:00:00.0000, -3.758884760992264E+08, -3.086927058356732E+08, -6.476870375976554E+07,
2460945.500000000, A.D. 2025-Sep-27 00:00:00.0000, -3.696624301405249E+08, -3.157930303992137E+08, -6.401606702588046E+07,
2460952.500000000, A.D. 2025-Oct-04 00:00:00.0000, -3.632841939278067E+08, -3.227634038638210E+08, -6.323707626980050E+07,
2460959.500000000, A.D. 2025-Oct-11 00:00:00.0000, -3.567560899649339E+08, -3.296006877029486E+08, -6.243199967826338E+07,
2460966.500000000, A.D. 2025-Oct-18 00:00:00.0000, -3.500804956619982E+08, -3.363017702140031E+08, -6.160111439334224E+07,
2460973.500000000, A.D. 2025-Oct-25 00:00:00.0000, -3.432598437777407E+08, -3.428635670919420E+08, -6.074470656668596E+07,
2460980.500000000, A.D. 2025-Nov-01 00:00:00.0000, -3.362966228788350E+08, -3.492830221269495E+08, -5.986307142311256E+07,
2460987.500000000, A.D. 2025-Nov-08 00:00:00.0000, -3.291933777810829E+08, -3.555571080587842E+08, -5.895651333946785E+07,
2460994.500000000, A.D. 2025-Nov-15 00:00:00.0000, -3.219527098242096E+08, -3.616828276472564E+08, -5.802534595722067E+07,
2461001.500000000, A.D. 2025-Nov-22 00:00:00.0000, -3.145772765770460E+08, -3.676572147392933E+08, -5.706989234776425E+07,
2461008.500000000, A.D. 2025-Nov-29 00:00:00.0000, -3.070697911254021E+08, -3.734773341974916E+08, -5.609048512342525E+07,
2461015.500000000, A.D. 2025-Dec-06 00:00:00.0000, -2.994330232181017E+08, -3.791402808254883E+08, -5.508746629597305E+07,
2461022.500000000, A.D. 2025-Dec-13 00:00:00.0000, -2.916698018346926E+08, -3.846431806605734E+08, -5.406118719748850E+07,
2461029.500000000, A.D. 2025-Dec-20 00:00:00.0000, -2.837830156793185E+08, -3.899831936119269E+08, -5.301200870032404E+07,
2461036.500000000, A.D. 2025-Dec-27 00:00:00.0000, -2.757756126727779E+08, -3.951575148549235E+08, -5.194030142592555E+07,
2461043.500000000, A.D. 2026-Jan-03 00:00:00.0000, -2.676505999003554E+08, -4.001633755985397E+08, -5.084644585900348E+07,
2461050.500000000, A.D. 2026-Jan-10 00:00:00.0000, -2.594110439043238E+08, -4.049980439060733E+08, -4.973083243262613E+07,
2461057.500000000, A.D. 2026-Jan-17 00:00:00.0000, -2.510600710873703E+08, -4.096588256617728E+08, -4.859386161299899E+07,
2461064.500000000, A.D. 2026-Jan-24 00:00:00.0000, -2.426008681477992E+08, -4.141430656615235E+08, -4.743594398905218E+07,
2461071.500000000, A.D. 2026-Jan-31 00:00:00.0000, -2.340366825217413E+08, -4.184481488355314E+08, -4.625750036927739E+07,
2461078.500000000, A.D. 2026-Feb-07 00:00:00.0000, -2.253708227692607E+08, -4.225715016606150E+08, -4.505896189568791E+07,
2461085.500000000, A.D. 2026-Feb-14 00:00:00.0000, -2.166066586493664E+08, -4.265105937775397E+08, -4.384077019884670E+07,
2461092.500000000, A.D. 2026-Feb-21 00:00:00.0000, -2.077476204941910E+08, -4.302629392365288E+08, -4.260337758181235E+07,
2461099.500000000, A.D. 2026-Feb-28 00:00:00.0000, -1.987971989647092E+08, -4.338260962174765E+08, -4.134724703867206E+07,
2461106.500000000, A.D. 2026-Mar-07 00:00:00.0000, -1.897589472434057E+08, -4.371976671748690E+08, -4.007285207767496E+07,
2461113.500000000, A.D. 2026-Mar-14 00:00:00.0000, -1.806364828848924E+08, -4.403753017413886E+08, -3.878067679384828E+07,
2461120.500000000, A.D. 2026-Mar-21 00:00:00.0000, -1.714334875391177E+08, -4.433566994943693E+08, -3.747121611749381E+07,
2461127.500000000, A.D. 2026-Mar-28 00:00:00.0000, -1.621537065543390E+08, -4.461396115578498E+08, -3.614497596968877E+07,
2461134.500000000, A.D. 2026-Apr-04 00:00:00.0000, -1.528009490609054E+08, -4.487218420065216E+08, -3.480247334767172E+07,
2461141.500000000, A.D. 2026-Apr-11 00:00:00.0000, -1.433790882587896E+08, -4.511012494319575E+08, -3.344423639394966E+07,
2461148.500000000, A.D. 2026-Apr-18 00:00:00.0000, -1.338920617459339E+08, -4.532757486783240E+08, -3.207080446361548E+07,
2461155.500000000, A.D. 2026-Apr-25 00:00:00.0000, -1.243438718376014E+08, -4.552433127337970E+08, -3.068272819227448E+07,
2461162.500000000, A.D. 2026-May-02 00:00:00.0000, -1.147385858421059E+08, -4.570019748085760E+08, -2.928056956923798E+07,
2461169.500000000, A.D. 2026-May-09 00:00:00.0000, -1.050803361645914E+08, -4.585498306669869E+08, -2.786490203219682E+07,
2461176.500000000, A.D. 2026-May-16 00:00:00.0000, -9.537331985727705E+07, -4.598850410762591E+08, -2.643631060605600E+07,
2461183.500000000, A.D. 2026-May-23 00:00:00.0000, -8.562179756074858E+07, -4.610058333500071E+08, -2.499539200641465E+07,
2461190.500000000, A.D. 2026-May-30 00:00:00.0000, -7.583009391095494E+07, -4.619105016662802E+08, -2.354275449021643E+07,
2461197.500000000, A.D. 2026-Jun-06 00:00:00.0000, -6.600259972464710E+07, -4.625974094325132E+08, -2.207901769137141E+07,
2461204.500000000, A.D. 2026-Jun-13 00:00:00.0000, -5.614377229233856E+07, -4.630649934981877E+08, -2.060481276086414E+07,
2461211.500000000, A.D. 2026-Jun-20 00:00:00.0000, -4.625813427526692E+07, -4.633117672893168E+08, -1.912078252579600E+07,
2461218.500000000, A.D. 2026-Jun-27 00:00:00.0000, -3.635027290007766E+07, -4.633363232040865E+08, -1.762758153883794E+07,
2461225.500000000, A.D. 2026-Jul-04 00:00:00.0000, -2.642483944622990E+07, -4.631373350436134E+08, -1.612587608091262E+07,
2461232.500000000, A.D. 2026-Jul-11 00:00:00.0000, -1.648654876681389E+07, -4.627135606088268E+08, -1.461634415071654E+07,
2461239.500000000, A.D. 2026-Jul-18 00:00:00.0000, -6.540178744566163E+06, -4.620638444369485E+08, -1.309967544704977E+07,
2461246.500000000, A.D. 2026-Jul-25 00:00:00.0000, 3.409430346806153E+06, -4.611871206742401E+08, -1.157657134549776E+07,
2461253.500000000, A.D. 2026-Aug-01 00:00:00.0000, 1.335737662910437E+07, -4.600824161325726E+08, -1.004774487719518E+07,
2461260.500000000, A.D. 2026-Aug-08 00:00:00.0000, 2.329869777313587E+07, -4.587488535644526E+08, -8.513920731472552E+06,
2461267.500000000, A.D. 2026-Aug-15 00:00:00.0000, 3.322837293835314E+07, -4.571856547033658E+08, -6.975835282641232E+06,
2461274.500000000, A.D. 2026-Aug-22 00:00:00.0000, 4.314132474220365E+07, -4.553921418436919E+08, -5.434236470297366E+06,
2461281.500000000, A.D. 2026-Aug-29 00:00:00.0000, 5.303241897604667E+07, -4.533677393271892E+08, -3.889883434545785E+06,
$$EOE